[{"OBJECT_NAME":"FLOCK 4G-17","OBJECT_ID":"2025-009CA","EPOCH":"2026-03-09T22:51:51.984864","MEAN_MOTION":15.27385439,"ECCENTRICITY":0.00036407,"INCLINATION":97.3966,"RA_OF_ASC_NODE":151.0229,"ARG_OF_PERICENTER":339.6132,"MEAN_ANOMALY":20.4962,"EPHEMERIS_TYPE":0,"CLASSIFICATION_TYPE":"U","NORAD_CAT_ID":62681,"ELEMENT_SET_NO":999,"REV_AT_EPOCH":12139,"BSTAR":0.00053710713,"MEAN_MOTION_DOT":0.00014342,"MEAN_MOTION_DDOT":0},{"OBJECT_NAME":"STARLINK-33698","OBJECT_ID":"2025-065X","EPOCH":"2026-03-09T11:54:30.061728","MEAN_MOTION":15.2760942,"ECCENTRICITY":0.00023253,"INCLINATION":43.0049,"RA_OF_ASC_NODE":107.8205,"ARG_OF_PERICENTER":310.0752,"MEAN_ANOMALY":49.9895,"EPHEMERIS_TYPE":0,"CLASSIFICATION_TYPE":"U","NORAD_CAT_ID":63420,"ELEMENT_SET_NO":999,"REV_AT_EPOCH":5281,"BSTAR":0.00093851706,"MEAN_MOTION_DOT":0.00025678,"MEAN_MOTION_DDOT":0}]
